[{"OBJECT_NAME":"WILDFIRE 6","OBJECT_ID":"2023-133G","EPOCH":"2026-03-09T22:36:17.475552","MEAN_MOTION":13.85319465,"ECCENTRICITY":0.0004585,"INCLINATION":80.992,"RA_OF_ASC_NODE":102.4593,"ARG_OF_PERICENTER":287.0723,"MEAN_ANOMALY":72.9931,"EPHEMERIS_TYPE":0,"CLASSIFICATION_TYPE":"U","NORAD_CAT_ID":57763,"ELEMENT_SET_NO":999,"REV_AT_EPOCH":12727,"BSTAR":5.6844456e-5,"MEAN_MOTION_DOT":7.6e-7,"MEAN_MOTION_DDOT":0},{"OBJECT_NAME":"THOR ABLESTAR DEB","OBJECT_ID":"1961-015AE","EPOCH":"2026-03-09T21:54:11.647584","MEAN_MOTION":13.91625509,"ECCENTRICITY":0.00358724,"INCLINATION":66.4979,"RA_OF_ASC_NODE":273.7476,"ARG_OF_PERICENTER":56.4855,"MEAN_ANOMALY":303.9641,"EPHEMERIS_TYPE":0,"CLASSIFICATION_TYPE":"U","NORAD_CAT_ID":144,"ELEMENT_SET_NO":999,"REV_AT_EPOCH":27083,"BSTAR":0.00024453263,"MEAN_MOTION_DOT":2.33e-6,"MEAN_MOTION_DDOT":0}]
